CCSDS_OMM_VERS = 2.0
CREATION_DATE  = 
ORIGINATOR     = 

OBJECT_NAME    = SL-16 R/B
OBJECT_ID      = 1998-043G
CENTER_NAME    = EARTH
REF_FRAME      = TEME
TIME_SYSTEM    = UTC
MEAN_ELEMENT_THEORY = SGP/SGP4

EPOCH          = 2026-02-15T11:45:16.257600
MEAN_MOTION    = 14.26044512
ECCENTRICITY   = .0010966
INCLINATION    = 98.8216
RA_OF_ASC_NODE = 359.7011
ARG_OF_PERICENTER = 79.7456
MEAN_ANOMALY   = 280.4959

EPHEMERIS_TYPE = 0
CLASSIFICATION_TYPE = U
NORAD_CAT_ID   = 25400
ELEMENT_SET_NO = 999
REV_AT_EPOCH   = 43582
BSTAR          = .53795E-4
MEAN_MOTION_DOT = .83E-6
MEAN_MOTION_DDOT = 0

CCSDS_OMM_VERS = 2.0
CREATION_DATE  = 
ORIGINATOR     = 

OBJECT_NAME    = SL-16 R/B
OBJECT_ID      = 1998-045B
CENTER_NAME    = EARTH
REF_FRAME      = TEME
TIME_SYSTEM    = UTC
MEAN_ELEMENT_THEORY = SGP/SGP4

EPOCH          = 2026-02-15T12:51:20.933280
MEAN_MOTION    = 14.16188338
ECCENTRICITY   = .0005674
INCLINATION    = 71.0087
RA_OF_ASC_NODE = 228.1621
ARG_OF_PERICENTER = 48.3233
MEAN_ANOMALY   = 311.8375

EPHEMERIS_TYPE = 0
CLASSIFICATION_TYPE = U
NORAD_CAT_ID   = 25407
ELEMENT_SET_NO = 999
REV_AT_EPOCH   = 42396
BSTAR          = .18778E-3
MEAN_MOTION_DOT = .324E-5
MEAN_MOTION_DDOT = 0

CCSDS_OMM_VERS = 2.0
CREATION_DATE  = 
ORIGINATOR     = 

OBJECT_NAME    = ISS (ZARYA)
OBJECT_ID      = 1998-067A
CENTER_NAME    = EARTH
REF_FRAME      = TEME
TIME_SYSTEM    = UTC
MEAN_ELEMENT_THEORY = SGP/SGP4

EPOCH          = 2026-02-15T10:34:23.469024
MEAN_MOTION    = 15.48624284
ECCENTRICITY   = .0011011
INCLINATION    = 51.6317
RA_OF_ASC_NODE = 182.3364
ARG_OF_PERICENTER = 101.2437
MEAN_ANOMALY   = 258.9789

EPHEMERIS_TYPE = 0
CLASSIFICATION_TYPE = U
NORAD_CAT_ID   = 25544
ELEMENT_SET_NO = 999
REV_AT_EPOCH   = 55288
BSTAR          = .24435E-3
MEAN_MOTION_DOT = .12882E-3
MEAN_MOTION_DDOT = 0

CCSDS_OMM_VERS = 2.0
CREATION_DATE  = 
ORIGINATOR     = 

OBJECT_NAME    = CZ-4B R/B
OBJECT_ID      = 1999-025C
CENTER_NAME    = EARTH
REF_FRAME      = TEME
TIME_SYSTEM    = UTC
MEAN_ELEMENT_THEORY = SGP/SGP4

EPOCH          = 2026-02-15T03:53:07.876608
MEAN_MOTION    = 14.18260652
ECCENTRICITY   = .0037915
INCLINATION    = 98.6672
RA_OF_ASC_NODE = 90.9721
ARG_OF_PERICENTER = 50.9851
MEAN_ANOMALY   = 17.4537

EPHEMERIS_TYPE = 0
CLASSIFICATION_TYPE = U
NORAD_CAT_ID   = 25732
ELEMENT_SET_NO = 999
REV_AT_EPOCH   = 38497
BSTAR          = .48063142E-4
MEAN_MOTION_DOT = .57E-6
MEAN_MOTION_DDOT = 0

CCSDS_OMM_VERS = 2.0
CREATION_DATE  = 
ORIGINATOR     = 

OBJECT_NAME    = OKEAN-O
OBJECT_ID      = 1999-039A
CENTER_NAME    = EARTH
REF_FRAME      = TEME
TIME_SYSTEM    = UTC
MEAN_ELEMENT_THEORY = SGP/SGP4

EPOCH          = 2026-02-15T03:26:02.025600
MEAN_MOTION    = 14.80297249
ECCENTRICITY   = .00018326
INCLINATION    = 97.9493
RA_OF_ASC_NODE = 106.2581
ARG_OF_PERICENTER = 82.0327
MEAN_ANOMALY   = 278.1093

EPHEMERIS_TYPE = 0
CLASSIFICATION_TYPE = U
NORAD_CAT_ID   = 25860
ELEMENT_SET_NO = 999
REV_AT_EPOCH   = 43105
BSTAR          = .89568282E-4
MEAN_MOTION_DOT = .63E-5
MEAN_MOTION_DDOT = 0

CCSDS_OMM_VERS = 2.0
CREATION_DATE  = 
ORIGINATOR     = 

OBJECT_NAME    = SL-16 R/B
OBJECT_ID      = 1999-039B
CENTER_NAME    = EARTH
REF_FRAME      = TEME
TIME_SYSTEM    = UTC
MEAN_ELEMENT_THEORY = SGP/SGP4

EPOCH          = 2026-02-15T03:27:42.437088
MEAN_MOTION    = 14.81698644
ECCENTRICITY   = .00141512
INCLINATION    = 98.0016
RA_OF_ASC_NODE = 105.2686
ARG_OF_PERICENTER = 335.6061
MEAN_ANOMALY   = 24.4480

EPHEMERIS_TYPE = 0
CLASSIFICATION_TYPE = U
NORAD_CAT_ID   = 25861
ELEMENT_SET_NO = 999
REV_AT_EPOCH   = 43352
BSTAR          = .76769288E-4
MEAN_MOTION_DOT = .551E-5
MEAN_MOTION_DDOT = 0

CCSDS_OMM_VERS = 2.0
CREATION_DATE  = 
ORIGINATOR     = 

OBJECT_NAME    = DELTA 2 R/B
OBJECT_ID      = 1999-041E
CENTER_NAME    = EARTH
REF_FRAME      = TEME
TIME_SYSTEM    = UTC
MEAN_ELEMENT_THEORY = SGP/SGP4

EPOCH          = 2026-02-15T08:30:01.788768
MEAN_MOTION    = 14.11753165
ECCENTRICITY   = .0502253
INCLINATION    = 51.7656
RA_OF_ASC_NODE = 30.4765
ARG_OF_PERICENTER = 282.4581
MEAN_ANOMALY   = 72.0611

EPHEMERIS_TYPE = 0
CLASSIFICATION_TYPE = U
NORAD_CAT_ID   = 25876
ELEMENT_SET_NO = 999
REV_AT_EPOCH   = 35987
BSTAR          = .43154E-3
MEAN_MOTION_DOT = .2451E-4
MEAN_MOTION_DDOT = 0

CCSDS_OMM_VERS = 2.0
CREATION_DATE  = 
ORIGINATOR     = 

OBJECT_NAME    = HELIOS 1B
OBJECT_ID      = 1999-064A
CENTER_NAME    = EARTH
REF_FRAME      = TEME
TIME_SYSTEM    = UTC
MEAN_ELEMENT_THEORY = SGP/SGP4

EPOCH          = 2026-02-15T07:34:52.311072
MEAN_MOTION    = 14.87604591
ECCENTRICITY   = .0002276
INCLINATION    = 98.1723
RA_OF_ASC_NODE = 307.8992
ARG_OF_PERICENTER = 104.5264
MEAN_ANOMALY   = 255.6204

EPHEMERIS_TYPE = 0
CLASSIFICATION_TYPE = U
NORAD_CAT_ID   = 25977
ELEMENT_SET_NO = 999
REV_AT_EPOCH   = 68193
BSTAR          = .23731E-3
MEAN_MOTION_DOT = .2098E-4
MEAN_MOTION_DDOT = 0

CCSDS_OMM_VERS = 2.0
CREATION_DATE  = 
ORIGINATOR     = 

OBJECT_NAME    = TERRA
OBJECT_ID      = 1999-068A
CENTER_NAME    = EARTH
REF_FRAME      = TEME
TIME_SYSTEM    = UTC
MEAN_ELEMENT_THEORY = SGP/SGP4

EPOCH          = 2026-02-15T10:56:47.259456
MEAN_MOTION    = 14.60990588
ECCENTRICITY   = .0001134
INCLINATION    = 97.9642
RA_OF_ASC_NODE = 100.7348
ARG_OF_PERICENTER = 225.1951
MEAN_ANOMALY   = 191.5972

EPHEMERIS_TYPE = 0
CLASSIFICATION_TYPE = U
NORAD_CAT_ID   = 25994
ELEMENT_SET_NO = 999
REV_AT_EPOCH   = 39183
BSTAR          = .12351E-3
MEAN_MOTION_DOT = .561E-5
MEAN_MOTION_DDOT = 0

CCSDS_OMM_VERS = 2.0
CREATION_DATE  = 
ORIGINATOR     = 

OBJECT_NAME    = SL-16 R/B
OBJECT_ID      = 2000-006B
CENTER_NAME    = EARTH
REF_FRAME      = TEME
TIME_SYSTEM    = UTC
MEAN_ELEMENT_THEORY = SGP/SGP4

EPOCH          = 2026-02-15T11:23:28.398336
MEAN_MOTION    = 14.15818991
ECCENTRICITY   = .0018085
INCLINATION    = 71.0026
RA_OF_ASC_NODE = 144.5477
ARG_OF_PERICENTER = 221.5365
MEAN_ANOMALY   = 138.4385

EPHEMERIS_TYPE = 0
CLASSIFICATION_TYPE = U
NORAD_CAT_ID   = 26070
ELEMENT_SET_NO = 999
REV_AT_EPOCH   = 34541
BSTAR          = -.74709E-4
MEAN_MOTION_DOT = -.195E-5
MEAN_MOTION_DDOT = 0

CCSDS_OMM_VERS = 2.0
CREATION_DATE  = 
ORIGINATOR     = 

OBJECT_NAME    = TITAN 4B R/B
OBJECT_ID      = 2000-047B
CENTER_NAME    = EARTH
REF_FRAME      = TEME
TIME_SYSTEM    = UTC
MEAN_ELEMENT_THEORY = SGP/SGP4

EPOCH          = 2026-02-15T11:57:49.673376
MEAN_MOTION    = 15.09368942
ECCENTRICITY   = .0037085
INCLINATION    = 67.9890
RA_OF_ASC_NODE = 102.9034
ARG_OF_PERICENTER = 62.5330
MEAN_ANOMALY   = 297.9582

EPHEMERIS_TYPE = 0
CLASSIFICATION_TYPE = U
NORAD_CAT_ID   = 26474
ELEMENT_SET_NO = 999
REV_AT_EPOCH   = 38956
BSTAR          = .25278E-3
MEAN_MOTION_DOT = .3976E-4
MEAN_MOTION_DDOT = 0

CCSDS_OMM_VERS = 2.0
CREATION_DATE  = 
ORIGINATOR     = 

OBJECT_NAME    = ENVISAT
OBJECT_ID      = 2002-009A
CENTER_NAME    = EARTH
REF_FRAME      = TEME
TIME_SYSTEM    = UTC
MEAN_ELEMENT_THEORY = SGP/SGP4

EPOCH          = 2026-02-15T12:16:31.912608
MEAN_MOTION    = 14.39028613
ECCENTRICITY   = .0001353
INCLINATION    = 98.3691
RA_OF_ASC_NODE = 0.6423
ARG_OF_PERICENTER = 87.0987
MEAN_ANOMALY   = 28.1480

EPHEMERIS_TYPE = 0
CLASSIFICATION_TYPE = U
NORAD_CAT_ID   = 27386
ELEMENT_SET_NO = 999
REV_AT_EPOCH   = 25598
BSTAR          = .6372E-4
MEAN_MOTION_DOT = .154E-5
MEAN_MOTION_DDOT = 0

