SL-16 R/B               
1 25400U 98043G   26046.48977150  .00000083  00000+0  53795-4 0  9997
2 25400  98.8216 359.7011 0010966  79.7456 280.4959 14.26044512435821
SL-16 R/B               
1 25407U 98045B   26046.53565895  .00000324  00000+0  18778-3 0  9990
2 25407  71.0087 228.1621 0005674  48.3233 311.8375 14.16188338423965
ISS (ZARYA)             
1 25544U 98067A   26046.44054941  .00012882  00000+0  24435-3 0  9990
2 25544  51.6317 182.3364 0011011 101.2437 258.9789 15.48624284552884
CZ-4B R/B               
1 25732U 99025C   26046.16189672  .00000057  00000+0  48063-4 0  9998
2 25732  98.6672  90.9721 0037915  50.9851  17.4537 14.18260652384973
OKEAN-O                 
1 25860U 99039A   26046.14307900  .00000630  00000+0  89568-4 0  9991
2 25860  97.9493 106.2581 0001832  82.0327 278.1093 14.80297249431052
SL-16 R/B               
1 25861U 99039B   26046.14424117  .00000551  00000+0  76769-4 0  9993
2 25861  98.0016 105.2686 0014151 335.6061  24.4480 14.81698644433522
DELTA 2 R/B             
1 25876U 99041E   26046.35418737  .00002451  00000+0  43154-3 0  9998
2 25876  51.7656  30.4765 0502253 282.4581  72.0611 14.11753165359875
HELIOS 1B               
1 25977U 99064A   26046.31588323  .00002098  00000+0  23731-3 0  9996
2 25977  98.1723 307.8992 0002276 104.5264 255.6204 14.87604591681935
TERRA                   
1 25994U 99068A   26046.45610254  .00000561  00000+0  12351-3 0  9992
2 25994  97.9642 100.7348 0001134 225.1951 191.5972 14.60990588391833
SL-16 R/B               
1 26070U 00006B   26046.47463424 -.00000195  00000+0 -74709-4 0  9990
2 26070  71.0026 144.5477 0018085 221.5365 138.4385 14.15818991345417
TITAN 4B R/B            
1 26474U 00047B   26046.49849159  .00003976  00000+0  25278-3 0  9992
2 26474  67.9890 102.9034 0037085  62.5330 297.9582 15.09368942389565
ENVISAT                 
1 27386U 02009A   26046.51148047  .00000154  00000+0  63720-4 0  9996
2 27386  98.3691   0.6423 0001353  87.0987  28.1480 14.39028613255989
